H1 CPF  1  HTS 2022  5 14 12  6341 larets           NONE
H2  0304206 5557    27944 2022 05 14  0  0  0 2022 05 19  0  0  0   180 1 1  0 0 0
H5  0.0560 
H9 
10 0 59716  33480.00000  0   -1212375.366   -5620947.428   -4101055.326
10 0 59716  33660.00000  0   -1663552.489   -6196518.015   -2947594.780
10 0 59716  33840.00000  0   -2066149.251   -6535233.512   -1686029.117
10 0 59716  34020.00000  0   -2399012.115   -6625905.483    -362526.028
10 0 59716  34200.00000  0   -2643353.589   -6466990.675     974304.501
10 0 59716  34380.00000  0   -2783725.684   -6066630.117    2275254.117
10 0 59716  34560.00000  0   -2808857.556   -5442269.993    3492400.834
10 0 59716  34740.00000  0   -2712308.331   -4619882.647    4580941.818
10 0 59716  34920.00000  0   -2492901.756   -3632835.328    5500887.215
10 0 59716  35100.00000  0   -2154924.130   -2520469.244    6218545.263
10 0 59716  35280.00000  0   -1708073.885   -1326466.669    6707740.301
10 0 59716  35460.00000  0   -1167171.733     -97087.784    6950733.083
10 0 59716  35640.00000  0    -551649.987    1120651.824    6938817.805
10 0 59716  35820.00000  0     115158.976    2280788.162    6672599.718
10 0 59716  36000.00000  0     806916.786    3340147.511    6161950.322
10 0 59716  36180.00000  0    1495320.931    4259955.901    5425642.413
10 0 59716  36360.00000  0    2151258.074    5007271.495    4490676.655
10 0 59716  36540.00000  0    2746029.559    5556188.441    3391311.204
10 0 59716  36720.00000  0    3252599.143    5888764.518    2167822.255
10 0 59716  36900.00000  0    3646808.498    5995637.322     865021.853
10 0 59716  37080.00000  0    3908493.619    5876280.407    -469410.532
10 0 59716  37260.00000  0    4022449.610    5538893.905   -1786706.273
10 0 59716  37440.00000  0    3979195.496    4999936.579   -3038820.717
10 0 59716  37620.00000  0    3775499.453    4283327.061   -4180204.905
10 0 59716  37800.00000  0    3414639.410    3419359.008   -5169457.013
10 0 59716  37980.00000  0    2906396.178    2443394.773   -5970791.301
10 0 59716  38160.00000  0    2266783.051    1394400.501   -6555278.082
10 0 59716  38340.00000  0    1517529.612     313391.577   -6901820.926
10 0 59716  38520.00000  0     685346.311    -758147.265   -6997858.929
10 0 59716  38700.00000  0    -199011.477   -1779819.626   -6839790.320
10 0 59716  38880.00000  0   -1101849.460   -2713803.314   -6433107.249
10 0 59716  39060.00000  0   -1987783.162   -3526228.865   -5792247.410
10 0 59716  39240.00000  0   -2821095.324   -4188411.416   -4940150.834
10 0 59716  39420.00000  0   -3567165.023   -4677897.849   -3907524.262
10 0 59716  39600.00000  0   -4193917.132   -4979284.466   -2731807.244
10 0 59716  39780.00000  0   -4673226.754   -5084761.844   -1455861.475
10 0 59716  39960.00000  0   -4982210.911   -4994352.937    -126416.891
10 0 59716  40140.00000  0   -5104334.257   -4715822.334    1207670.681
10 0 59716  40320.00000  0   -5030262.353   -4264250.336    2497278.428
10 0 59716  40500.00000  0   -4758407.327   -3661285.462    3694900.707
10 0 59716  40680.00000  0   -4295136.802   -2934119.059    4756463.951
10 0 59716  40860.00000  0   -3654635.217   -2114238.765    5642989.551
10 0 59716  41040.00000  0   -2858433.313   -1236034.348    6322030.418
10 0 59716  41220.00000  0   -1934635.693    -335326.904    6768842.342
10 0 59716  41400.00000  0    -916876.831     552116.532    6967247.890
10 0 59716  41580.00000  0     156938.228    1392009.298    6910174.749
10 0 59716  41760.00000  0    1246061.304    2152869.874    6599876.639
10 0 59716  41940.00000  0    2308454.385    2807201.492    6047829.783
10 0 59716  42120.00000  0    3302414.595    3332485.762    5274314.098
10 0 59716  42300.00000  0    4188220.443    3711964.640    4307687.581
10 0 59716  42480.00000  0    4929733.236    3935179.999    3183366.488
10 0 59716  42660.00000  0    5495898.101    3998253.588    1942539.803
10 0 59716  42840.00000  0    5862065.171    3903886.072     630649.325
10 0 59716  43020.00000  0    6011067.191    3661077.413    -704300.826
10 0 59716  43200.00000  0    5933995.626    3284580.299   -2013537.239
10 0 59716  43380.00000  0    5630636.665    2794117.233   -3249329.276
10 0 59716  43560.00000  0    5109551.447    2213406.994   -4366742.347
10 0 59716  43740.00000  0    4387803.398    1569050.031   -5325264.122
10 0 59716  43920.00000  0    3490348.017     889330.187   -6090235.125
10 0 59716  44100.00000  0    2449129.306     202996.500   -6634042.055
10 0 59716  44280.00000  0    1301923.140    -461924.776   -6937048.375
10 0 59716  44460.00000  0      90977.245   -1079244.601   -6988249.879
10 0 59716  44640.00000  0   -1138514.610   -1625616.245   -6785646.849
10 0 59716  44820.00000  0   -2340056.160   -2081399.845   -6336330.480
10 0 59716  45000.00000  0   -3467568.873   -2431365.399   -5656279.949
10 0 59716  45180.00000  0   -4477139.625   -2665212.419   -4769869.452
10 0 59716  45360.00000  0   -5328749.033   -2777890.093   -3709079.170
10 0 59716  45540.00000  0   -5987907.459   -2769697.590   -2512411.196
10 0 59716  45720.00000  0   -6427124.954   -2646153.968   -1223532.012
10 0 59716  45900.00000  0   -6627135.347   -2417636.690     110320.168
10 0 59716  46080.00000  0   -6577802.190   -2098799.989    1440104.118
10 0 59716  46260.00000  0   -6278647.153   -1707798.712    2716845.232
10 0 59716  46440.00000  0   -5738960.326   -1265358.339    3893514.021
10 0 59716  46620.00000  0   -4977489.388    -793741.567    4926822.448
10 0 59716  46800.00000  0   -4021723.304    -315669.097    5778850.055
10 0 59716  46980.00000  0   -2906827.141     146745.828    6418436.460
10 0 59716  47160.00000  0   -1674275.166     572999.181    6822298.588
10 0 59716  47340.00000  0    -370249.727     945085.588    6975837.118
10 0 59716  47520.00000  0     956122.175    1248245.060    6873620.425
10 0 59716  47700.00000  0    2254631.488    1471541.286    6519546.220
10 0 59716  47880.00000  0    3475890.925    1608252.605    5926683.065
10 0 59716  48060.00000  0    4573220.416    1656063.259    5116797.125
10 0 59716  48240.00000  0    5504447.004    1617051.707    4119573.019
10 0 59716  48420.00000  0    6233560.323    1497479.596    2971548.140
10 0 59716  48600.00000  0    6732145.900    1307387.057    1714776.657
10 0 59716  48780.00000  0    6980529.500    1060012.685     395278.576
10 0 59716  48960.00000  0    6968575.904     771068.227    -938673.522
10 0 59716  49140.00000  0    6696098.275     457903.133   -2238357.324
10 0 59716  49320.00000  0    6172856.235     138601.620   -3456409.317
10 0 59716  49500.00000  0    5418153.774    -168938.043   -4548562.056
10 0 59716  49680.00000  0    4460059.810    -447894.216   -5475238.790
10 0 59716  49860.00000  0    3334303.150    -683338.739   -6202942.590
10 0 59716  50040.00000  0    2082902.346    -862947.006   -6705407.498
10 0 59716  50220.00000  0     752586.766    -977571.239   -6964481.351
10 0 59716  50400.00000  0    -606927.012   -1021658.321   -6970731.194
10 0 59716  50580.00000  0   -1944752.917    -993497.518   -6723765.967
10 0 59716  50760.00000  0   -3210696.001    -895291.286   -6232271.858
10 0 59716  50940.00000  0   -4357102.001    -733045.435   -5513756.113
10 0 59716  51120.00000  0   -5340650.153    -516281.653   -4594003.096
10 0 59716  51300.00000  0   -6124029.570    -257578.622   -3506231.714
10 0 59716  51480.00000  0   -6677431.089      28044.144   -2289963.702
10 0 59716  51660.00000  0   -6979779.978     323878.277    -989622.172
10 0 59716  51840.00000  0   -7019638.968     612381.195     347099.575
10 0 59716  52020.00000  0   -6795711.957     876089.286    1671035.426
10 0 59716  52200.00000  0   -6316920.482    1098540.728    2933420.280
10 0 59716  52380.00000  0   -5602041.651    1265156.766    4087760.939
10 0 59716  52560.00000  0   -4678920.371    1364031.987    5091607.464
10 0 59716  52740.00000  0   -3583310.124    1386591.311    5908140.814
10 0 59716  52920.00000  0   -2357412.306    1328082.196    6507520.324
10 0 59716  53100.00000  0   -1048181.389    1187881.742    6867950.060
10 0 59716  53280.00000  0     294525.194     969605.857    6976426.179
10 0 59716  53460.00000  0    1619867.180     681018.156    6829161.667
10 0 59716  53640.00000  0    2877950.927     333744.839    6431692.296
10 0 59716  53820.00000  0    4021709.451     -57194.758    5798664.823
10 0 59716  54000.00000  0    5008673.844    -474026.914    4953309.289
10 0 59716  54180.00000  0    5802572.227    -897008.104    3926606.591
10 0 59716  54360.00000  0    6374698.939   -1305324.460    2756171.238
10 0 59716  54540.00000  0    6704994.360   -1678067.197    1484876.222
10 0 59716  54720.00000  0    6782780.266   -1995236.923     159268.117
10 0 59716  54900.00000  0    6607115.337   -2238730.527   -1172166.672
10 0 59716  55080.00000  0    6186747.330   -2393255.643   -2460812.987
10 0 59716  55260.00000  0    5539666.930   -2447126.328   -3659730.227
10 0 59716  55440.00000  0    4692294.711   -2392899.807   -4725367.328
10 0 59716  55620.00000  0    3678353.096   -2227828.011   -5619124.676
10 0 59716  55800.00000  0    2537479.228   -1954105.296   -6308705.652
10 0 59716  55980.00000  0    1313656.340   -1578904.839   -6769219.236
10 0 59716  56160.00000  0      53524.182   -1114205.036   -6984018.771
10 0 59716  56340.00000  0   -1195370.944    -576415.045   -6945256.274
10 0 59716  56520.00000  0   -2386329.239      14188.402   -6654153.715
10 0 59716  56700.00000  0   -3475206.899     634201.169   -6120985.402
10 0 59716  56880.00000  0   -4422032.342    1257988.095   -5364772.427
10 0 59716  57060.00000  0   -5192489.989    1858711.916   -4412685.849
10 0 59716  57240.00000  0   -5759217.112    2409466.429   -3299152.200
10 0 59716  57420.00000  0   -6102852.427    2884465.997   -2064669.183
10 0 59716  57600.00000  0   -6212784.815    3260237.656    -754361.276
10 0 59716  57780.00000  0   -6087552.262    3516758.034     583683.581
99
